[{"OBJECT_NAME":"STARLINK-5942","OBJECT_ID":"2023-042AE","EPOCH":"2026-03-09T22:00:01.999584","MEAN_MOTION":15.08677002,"ECCENTRICITY":0.00016541,"INCLINATION":43.0008,"RA_OF_ASC_NODE":42.1159,"ARG_OF_PERICENTER":241.0933,"MEAN_ANOMALY":46.1403,"EPHEMERIS_TYPE":0,"CLASSIFICATION_TYPE":"U","NORAD_CAT_ID":56014,"ELEMENT_SET_NO":999,"REV_AT_EPOCH":557,"BSTAR":0.0040190504,"MEAN_MOTION_DOT":0.00064432,"MEAN_MOTION_DDOT":0},{"OBJECT_NAME":"OBJECT J","OBJECT_ID":"2017-042J","EPOCH":"2026-03-09T23:17:19.167936","MEAN_MOTION":15.08203331,"ECCENTRICITY":0.00078186,"INCLINATION":97.4246,"RA_OF_ASC_NODE":235.0467,"ARG_OF_PERICENTER":81.5059,"MEAN_ANOMALY":278.7055,"EPHEMERIS_TYPE":0,"CLASSIFICATION_TYPE":"U","NORAD_CAT_ID":42833,"ELEMENT_SET_NO":999,"REV_AT_EPOCH":47205,"BSTAR":0.00039182004,"MEAN_MOTION_DOT":6.006e-5,"MEAN_MOTION_DDOT":0}]
